{"fetched_at":"2026-07-16T17:46:28.172Z","source":"https://celestrak.org/NORAD/elements/gp.php?NAME=GLOBAL&FORMAT=JSON","constellation":"blacksky-gen2","records":[{"OBJECT_NAME":"GLOBAL-2","OBJECT_ID":"2018-099BG","EPOCH":"2026-07-16T01:22:46.192512","CLASSIFICATION_TYPE":"U","MEAN_MOTION":15.08828463,"ECCENTRICITY":0.00073472,"INCLINATION":97.3548,"RA_OF_ASC_NODE":232.3704,"ARG_OF_PERICENTER":64.646,"MEAN_ANOMALY":295.5529,"EPHEMERIS_TYPE":0,"NORAD_CAT_ID":43812,"ELEMENT_SET_NO":999,"REV_AT_EPOCH":41626,"BSTAR":0.00010891344,"MEAN_MOTION_DOT":0.00001654,"MEAN_MOTION_DDOT":0},{"OBJECT_NAME":"GLOBAL-4","OBJECT_ID":"2019-054E","EPOCH":"2026-07-15T21:56:38.095584","CLASSIFICATION_TYPE":"U","MEAN_MOTION":15.67138233,"ECCENTRICITY":0.0005516,"INCLINATION":45.0056,"RA_OF_ASC_NODE":70.3001,"ARG_OF_PERICENTER":201.4444,"MEAN_ANOMALY":158.6224,"EPHEMERIS_TYPE":0,"NORAD_CAT_ID":44499,"ELEMENT_SET_NO":999,"REV_AT_EPOCH":38486,"BSTAR":0.00034942,"MEAN_MOTION_DOT":0.00038121,"MEAN_MOTION_DDOT":0},{"OBJECT_NAME":"GLOBAL-9","OBJECT_ID":"2021-023G","EPOCH":"2026-07-15T23:39:17.716608","CLASSIFICATION_TYPE":"U","MEAN_MOTION":15.47630681,"ECCENTRICITY":0.00035147,"INCLINATION":44.9815,"RA_OF_ASC_NODE":88.5298,"ARG_OF_PERICENTER":174.7695,"MEAN_ANOMALY":185.3233,"EPHEMERIS_TYPE":0,"NORAD_CAT_ID":47971,"ELEMENT_SET_NO":999,"REV_AT_EPOCH":29940,"BSTAR":0.00023363672,"MEAN_MOTION_DOT":0.00011981,"MEAN_MOTION_DDOT":0},{"OBJECT_NAME":"GLOBAL-14","OBJECT_ID":"2021-106A","EPOCH":"2026-07-16T04:29:15.481536","CLASSIFICATION_TYPE":"U","MEAN_MOTION":15.51859357,"ECCENTRICITY":0.00179631,"INCLINATION":42.0038,"RA_OF_ASC_NODE":118.5597,"ARG_OF_PERICENTER":230.639,"MEAN_ANOMALY":129.2864,"EPHEMERIS_TYPE":0,"NORAD_CAT_ID":49469,"ELEMENT_SET_NO":999,"REV_AT_EPOCH":26263,"BSTAR":0.0002572868,"MEAN_MOTION_DOT":0.00015623,"MEAN_MOTION_DDOT":0},{"OBJECT_NAME":"GLOBAL-12","OBJECT_ID":"2021-115BA","EPOCH":"2026-07-16T04:45:05.072832","CLASSIFICATION_TYPE":"U","MEAN_MOTION":15.55369753,"ECCENTRICITY":0.00028991,"INCLINATION":53.194,"RA_OF_ASC_NODE":264.8579,"ARG_OF_PERICENTER":73.2085,"MEAN_ANOMALY":286.9245,"EPHEMERIS_TYPE":0,"NORAD_CAT_ID":49772,"ELEMENT_SET_NO":999,"REV_AT_EPOCH":26041,"BSTAR":0.00025853004,"MEAN_MOTION_DOT":0.00017441,"MEAN_MOTION_DDOT":0},{"OBJECT_NAME":"GLOBAL-13","OBJECT_ID":"2021-115BB","EPOCH":"2026-07-15T19:28:41.992896","CLASSIFICATION_TYPE":"U","MEAN_MOTION":15.47126438,"ECCENTRICITY":0.00005195,"INCLINATION":53.1971,"RA_OF_ASC_NODE":278.4021,"ARG_OF_PERICENTER":153.681,"MEAN_ANOMALY":206.4225,"EPHEMERIS_TYPE":0,"NORAD_CAT_ID":49773,"ELEMENT_SET_NO":999,"REV_AT_EPOCH":26019,"BSTAR":0.00023109511,"MEAN_MOTION_DOT":0.0001149,"MEAN_MOTION_DDOT":0},{"OBJECT_NAME":"GLOBAL-17","OBJECT_ID":"2021-120A","EPOCH":"2026-07-16T03:45:13.007520","CLASSIFICATION_TYPE":"U","MEAN_MOTION":15.53746591,"ECCENTRICITY":0.00133607,"INCLINATION":41.9928,"RA_OF_ASC_NODE":236.4729,"ARG_OF_PERICENTER":98.3601,"MEAN_ANOMALY":261.8759,"EPHEMERIS_TYPE":0,"NORAD_CAT_ID":49949,"ELEMENT_SET_NO":999,"REV_AT_EPOCH":25940,"BSTAR":0.00022428618,"MEAN_MOTION_DOT":0.00014509,"MEAN_MOTION_DDOT":0},{"OBJECT_NAME":"GLOBAL-16","OBJECT_ID":"2021-120B","EPOCH":"2026-07-16T03:30:02.354112","CLASSIFICATION_TYPE":"U","MEAN_MOTION":15.5151102,"ECCENTRICITY":0.00115041,"INCLINATION":41.9931,"RA_OF_ASC_NODE":240.8283,"ARG_OF_PERICENTER":87.3043,"MEAN_ANOMALY":272.9118,"EPHEMERIS_TYPE":0,"NORAD_CAT_ID":49950,"ELEMENT_SET_NO":999,"REV_AT_EPOCH":25934,"BSTAR":0.00024953701,"MEAN_MOTION_DOT":0.00014892,"MEAN_MOTION_DDOT":0},{"OBJECT_NAME":"GLOBAL-18","OBJECT_ID":"2022-034B","EPOCH":"2026-07-16T01:44:18.627648","CLASSIFICATION_TYPE":"U","MEAN_MOTION":15.47244701,"ECCENTRICITY":0.0004499,"INCLINATION":52.9819,"RA_OF_ASC_NODE":118.4843,"ARG_OF_PERICENTER":27.9075,"MEAN_ANOMALY":332.2171,"EPHEMERIS_TYPE":0,"NORAD_CAT_ID":52196,"ELEMENT_SET_NO":999,"REV_AT_EPOCH":24143,"BSTAR":0.00026838998,"MEAN_MOTION_DOT":0.00013478,"MEAN_MOTION_DDOT":0},{"OBJECT_NAME":"GLOBAL-19","OBJECT_ID":"2023-041B","EPOCH":"2026-07-15T22:11:17.054880","CLASSIFICATION_TYPE":"U","MEAN_MOTION":15.38694225,"ECCENTRICITY":0.0009785,"INCLINATION":42.0023,"RA_OF_ASC_NODE":34.2193,"ARG_OF_PERICENTER":222.9817,"MEAN_ANOMALY":137.0259,"EPHEMERIS_TYPE":0,"NORAD_CAT_ID":55982,"ELEMENT_SET_NO":999,"REV_AT_EPOCH":18635,"BSTAR":0.00020145,"MEAN_MOTION_DOT":0.00007625,"MEAN_MOTION_DDOT":0},{"OBJECT_NAME":"GLOBAL-5","OBJECT_ID":"2023-041C","EPOCH":"2026-07-16T00:31:47.686080","CLASSIFICATION_TYPE":"U","MEAN_MOTION":15.38709009,"ECCENTRICITY":0.00086565,"INCLINATION":42.0015,"RA_OF_ASC_NODE":33.1751,"ARG_OF_PERICENTER":218.8802,"MEAN_ANOMALY":141.1416,"EPHEMERIS_TYPE":0,"NORAD_CAT_ID":55983,"ELEMENT_SET_NO":999,"REV_AT_EPOCH":18637,"BSTAR":0.00021722015,"MEAN_MOTION_DOT":0.00008246,"MEAN_MOTION_DDOT":0}]}
